From: horizons@ssd.jpl.nasa.gov (Horizons Ephemeris System)
Subject: [Horizons] SMALL BODY #C(500@10)_T(96P/Machholz 1) (1/1)
Date: February 23, 2021 at 4:21:08 PM PST

Automated mail xmit by MAIL_REQUEST, PID= 22901 Tue Feb 23 16:21:08 2021
++++++++++++++++++++++++++++++++ (part 1 of 1)  +++++++++++++++++++++++++++++++
*******************************************************************************
JPL/HORIZONS                   96P/Machholz 1              2021-Feb-23 16:21:08
Rec #:90000903 (+COV) Soln.date: 2020-Jun-02_14:02:54    # obs: 963 (2007-2017)

IAU76/J2000 helio. ecliptic osc. elements (au, days, deg., period=Julian yrs):

 EPOCH=  2454773.5 ! 2008-Nov-03.0000000 (TDB)    RMSW= n.a.
  EC= .9592074836894154   QR= .1237142323289413   TP= 2454196.1560801184
  OM= 94.35081293062883   W= 14.7463138854509     IN= 58.53858182853028
  A= 3.032767858374081    MA= 107.7407308762318   ADIST= 5.94182148441922
  PER= 5.2816177613144    N= .186614467           ANGMOM= .008468987000000001
  DAN= .12574             DDN= 3.34844            L= 102.1728765
  B= 12.5399511           MOID= .334629           TP= 2007-Apr-05.6560801184

Comet physical (GM= km^3/s^2; RAD= km):
  GM= n.a.                RAD= 3.2
  M1=  13.4     M2=  n.a.     k1=  11.25  k2= n.a.     PHCOF= n.a.

Comet non-gravitational force model (AMRAT=m^2/kg;A1-A3=au/d^2;DT=days;R0=au):
  AMRAT=  0.                                      DT=  0.
  A1= 7.035676855594E-11  A2= -1.762594765751E-12 A3= -2.102047018707E-10
Standard model:
  ALN=  .1112620426   NK=  4.6142   NM=  2.15     NN=  5.093    R0=  2.808

COMET comments 
1: soln ref.= JPL#K173/5, data arc: 2007-04-09 to 2017-10-02
2: k1=11.25;
*******************************************************************************


*******************************************************************************
Ephemeris / MAIL_REQUEST Tue Feb 23 16:21:08 2021 Pasadena, USA  / Horizons
*******************************************************************************
Target body name: 96P/Machholz 1                  {source: JPL#K173/5}
Center body name: Sun (10)                        {source: DE431}
Center-site name: BODY CENTER
*******************************************************************************
Start time      : A.D. 1990-Jan-01 00:00:00.0000 TDB
Stop  time      : A.D. 2020-Dec-31 00:00:00.0000 TDB
Step-size       : 10080 minutes
*******************************************************************************
Center geodetic : 0.00000000,0.00000000,0.0000000 {E-lon(deg),Lat(deg),Alt(km)}
Center cylindric: 0.00000000,0.00000000,0.0000000 {E-lon(deg),Dxy(km),Dz(km)}
Center radii    : 696000.0 x 696000.0 x 696000.0 k{Equator, meridian, pole}    
Small perturbers: Yes                             {source: SB431-N16}
Output units    : AU-D
Output type     : GEOMETRIC cartesian states
Output format   : 6 (LT, range, and range-rate)
Reference frame : Ecliptic of J2000.0
*******************************************************************************
Initial IAU76/J2000 heliocentric ecliptic osculating elements (au, days, deg.):
 EPOCH=  2454773.5 ! 2008-Nov-03.0000000 (TDB)    RMSW= n.a.                  
  EC= .9592074836894154   QR= .1237142323289413   TP= 2454196.1560801184      
  OM= 94.35081293062883   W= 14.7463138854509     IN= 58.53858182853028       
 Equivalent ICRF heliocentric equatorial cartesian coordinates (au, au/d):
  X= 8.322229546848101E-01  Y=-4.491464866968330E+00  Z=-2.722259808138627E+00
 VX= 1.323136608941809E-03 VY=-2.005952402164445E-03 VZ=-2.819544001122752E-03
Comet physical (GM= km^3/s^2; RAD= km):                                        
  GM= n.a.                RAD= 3.2                                            
  M1=  13.4     M2=  n.a.     k1=  11.25  k2= n.a.     PHCOF= n.a.            
Comet non-gravitational force model (AMRAT=m^2/kg;A1-A3=au/d^2;DT=days;R0=au): 
  AMRAT=  0.                                      DT=  0.                     
  A1= 7.035676855594E-11  A2= -1.762594765751E-12 A3= -2.102047018707E-10     
Standard model:                                                               
  ALN=  .1112620426   NK=  4.6142   NM=  2.15     NN=  5.093    R0=  2.808    
*******************************************************************************
           JDTDB,            Calendar Date (TDB),                     LT,                     RG,                     RR,
**************************************************************************************************************************
$$SOE
2453128.500000000, A.D. 2004-May-03 00:00:00.0000,  3.381701891257123E-02,  5.855235317754985E+00,  9.056946679326864E-04,
2453135.500000000, A.D. 2004-May-10 00:00:00.0000,  3.385246528064153E-02,  5.861372666134153E+00,  8.478526932115584E-04,
2453142.500000000, A.D. 2004-May-17 00:00:00.0000,  3.388557545878352E-02,  5.867105515766328E+00,  7.901222845792347E-04,
2453149.500000000, A.D. 2004-May-24 00:00:00.0000,  3.391635379966292E-02,  5.872434620292212E+00,  7.324956743703292E-04,
2453156.500000000, A.D. 2004-May-31 00:00:00.0000,  3.394480434749067E-02,  5.877360679945229E+00,  6.749653972767118E-04,
2453163.500000000, A.D. 2004-Jun-07 00:00:00.0000,  3.397093085414082E-02,  5.881884344342232E+00,  6.175244941877600E-04,
2453170.500000000, A.D. 2004-Jun-14 00:00:00.0000,  3.399473680127441E-02,  5.886006216314138E+00,  5.601664704287933E-04,
2453177.500000000, A.D. 2004-Jun-21 00:00:00.0000,  3.401622539568894E-02,  5.889726851100728E+00,  5.028838538613760E-04,
2453184.500000000, A.D. 2004-Jun-28 00:00:00.0000,  3.403539949877384E-02,  5.893046744136221E+00,  4.456672274903469E-04,
2453191.500000000, A.D. 2004-Jul-05 00:00:00.0000,  3.405226159746032E-02,  5.895966326019408E+00,  3.885079754056975E-04,
2453198.500000000, A.D. 2004-Jul-12 00:00:00.0000,  3.406681386617084E-02,  5.898485973239869E+00,  3.313990621383564E-04,
2453205.500000000, A.D. 2004-Jul-19 00:00:00.0000,  3.407905820406793E-02,  5.900606014627400E+00,  2.743337433544359E-04,
2453212.500000000, A.D. 2004-Jul-26 00:00:00.0000,  3.408899623427564E-02,  5.902326731217218E+00,  2.173050919190515E-04,
2453219.500000000, A.D. 2004-Aug-02 00:00:00.0000,  3.409662929619433E-02,  5.903648354919310E+00,  1.603060106445414E-04,
2453226.500000000, A.D. 2004-Aug-09 00:00:00.0000,  3.410195843997447E-02,  5.904571067561589E+00,  1.033292970179341E-04,
2453233.500000000, A.D. 2004-Aug-16 00:00:00.0000,  3.410498442334733E-02,  5.905095000341164E+00,  4.636769682934217E-05,
2453240.500000000, A.D. 2004-Aug-23 00:00:00.0000,  3.410570771089673E-02,  5.905220233698221E+00, -1.058602025379224E-05,
2453247.500000000, A.D. 2004-Aug-30 00:00:00.0000,  3.410412847784301E-02,  5.904946797971226E+00, -6.753890258918350E-05,
2453254.500000000, A.D. 2004-Sep-06 00:00:00.0000,  3.410024662191803E-02,  5.904274675453002E+00, -1.244976107472707E-04,
2453261.500000000, A.D. 2004-Sep-13 00:00:00.0000,  3.409406177391345E-02,  5.903203802217103E+00, -1.814689125628341E-04,
2453268.500000000, A.D. 2004-Sep-20 00:00:00.0000,  3.408557325698794E-02,  5.901734061072087E+00, -2.384615283294890E-04,
2453275.500000000, A.D. 2004-Sep-27 00:00:00.0000,  3.407478000738071E-02,  5.899865267833483E+00, -2.954853491630774E-04,
2453282.500000000, A.D. 2004-Oct-04 00:00:00.0000,  3.406168058843399E-02,  5.897597173751707E+00, -3.525487567226751E-04,
2453289.500000000, A.D. 2004-Oct-11 00:00:00.0000,  3.404627324799846E-02,  5.894929475451509E+00, -4.096592232958886E-04,
2453296.500000000, A.D. 2004-Oct-18 00:00:00.0000,  3.402855593140167E-02,  5.891861817177385E+00, -4.668243194106558E-04,
2453303.500000000, A.D. 2004-Oct-25 00:00:00.0000,  3.400852627266262E-02,  5.888393789272422E+00, -5.240518671537448E-04,
2453310.500000000, A.D. 2004-Nov-01 00:00:00.0000,  3.398618158579197E-02,  5.884524926671981E+00, -5.813498601065664E-04,
2453317.500000000, A.D. 2004-Nov-08 00:00:00.0000,  3.396151885956644E-02,  5.880254707998917E+00, -6.387263815980523E-04,
2453324.500000000, A.D. 2004-Nov-15 00:00:00.0000,  3.393453475543606E-02,  5.875582555201219E+00, -6.961895263157471E-04,
2453331.500000000, A.D. 2004-Nov-22 00:00:00.0000,  3.390522560927442E-02,  5.870507833855067E+00, -7.537472783069605E-04,
2453338.500000000, A.D. 2004-Nov-29 00:00:00.0000,  3.387358743995936E-02,  5.865029854650525E+00, -8.114072919692297E-04,
2453345.500000000, A.D. 2004-Dec-06 00:00:00.0000,  3.383961596616955E-02,  5.859147876299787E+00, -8.691768094546317E-04,
2453352.500000000, A.D. 2004-Dec-13 00:00:00.0000,  3.380330660527404E-02,  5.852861105344898E+00, -9.270638450618770E-04,
2453359.500000000, A.D. 2004-Dec-20 00:00:00.0000,  3.376465440591201E-02,  5.846168684484307E+00, -9.850785670383697E-04,
2453366.500000000, A.D. 2004-Dec-27 00:00:00.0000,  3.372365399961487E-02,  5.839069684196492E+00, -1.043230884638051E-03,
2453373.500000000, A.D. 2005-Jan-03 00:00:00.0000,  3.368029965233790E-02,  5.831563111662392E+00, -1.101529097035891E-03,
2453380.500000000, A.D. 2005-Jan-10 00:00:00.0000,  3.363458530598826E-02,  5.823647917955739E+00, -1.159981125498905E-03,
2453387.500000000, A.D. 2005-Jan-17 00:00:00.0000,  3.358650457825588E-02,  5.815322998013806E+00, -1.218595115822165E-03,
2453394.500000000, A.D. 2005-Jan-24 00:00:00.0000,  3.353605075231485E-02,  5.806587188854237E+00, -1.277379460860239E-03,
2453401.500000000, A.D. 2005-Jan-31 00:00:00.0000,  3.348321676806413E-02,  5.797439268058428E+00, -1.336342740567863E-03,
2453408.500000000, A.D. 2005-Feb-07 00:00:00.0000,  3.342799521556148E-02,  5.787877952634658E+00, -1.395493673812332E-03,
2453415.500000000, A.D. 2005-Feb-14 00:00:00.0000,  3.337037833053299E-02,  5.777901898240565E+00, -1.454841056168156E-03,
2453422.500000000, A.D. 2005-Feb-21 00:00:00.0000,  3.331035799364923E-02,  5.767509699057841E+00, -1.514393624425840E-03,
2453429.500000000, A.D. 2005-Feb-28 00:00:00.0000,  3.324792573728103E-02,  5.756699888961947E+00, -1.574159843133736E-03,
